[{"OBJECT_NAME":"AIST-2 (RS43)","OBJECT_ID":"2013-015D","EPOCH":"2026-03-07T04:46:23.117088","MEAN_MOTION":15.25020008,"ECCENTRICITY":0.0024188,"INCLINATION":64.8684,"RA_OF_ASC_NODE":230.5236,"ARG_OF_PERICENTER":248.9916,"MEAN_ANOMALY":110.8627,"EPHEMERIS_TYPE":0,"CLASSIFICATION_TYPE":"U","NORAD_CAT_ID":39133,"ELEMENT_SET_NO":999,"REV_AT_EPOCH":70834,"BSTAR":0.00036845,"MEAN_MOTION_DOT":9.118e-5,"MEAN_MOTION_DDOT":0},{"OBJECT_NAME":"GAOFEN-1","OBJECT_ID":"2013-018A","EPOCH":"2026-03-07T05:00:13.587840","MEAN_MOTION":14.76539637,"ECCENTRICITY":0.0016255,"INCLINATION":97.918,"RA_OF_ASC_NODE":140.3129,"ARG_OF_PERICENTER":232.9261,"MEAN_ANOMALY":127.0464,"EPHEMERIS_TYPE":0,"CLASSIFICATION_TYPE":"U","NORAD_CAT_ID":39150,"ELEMENT_SET_NO":999,"REV_AT_EPOCH":69319,"BSTAR":5.6533e-5,"MEAN_MOTION_DOT":3.44e-6,"MEAN_MOTION_DDOT":0},{"OBJECT_NAME":"NEE-01 PEGASO","OBJECT_ID":"2013-018B","EPOCH":"2026-03-06T22:51:36.071712","MEAN_MOTION":14.93068309,"ECCENTRICITY":0.0013655,"INCLINATION":98.1051,"RA_OF_ASC_NODE":206.8606,"ARG_OF_PERICENTER":137.5248,"MEAN_ANOMALY":222.703,"EPHEMERIS_TYPE":0,"CLASSIFICATION_TYPE":"U","NORAD_CAT_ID":39151,"ELEMENT_SET_NO":999,"REV_AT_EPOCH":69544,"BSTAR":0.00040902,"MEAN_MOTION_DOT":4.206e-5,"MEAN_MOTION_DDOT":0},{"OBJECT_NAME":"TURKSAT-3USAT","OBJECT_ID":"2013-018C","EPOCH":"2026-03-06T19:37:57.216576","MEAN_MOTION":14.95702494,"ECCENTRICITY":0.0013471,"INCLINATION":97.793,"RA_OF_ASC_NODE":157.137,"ARG_OF_PERICENTER":83.7072,"MEAN_ANOMALY":276.5683,"EPHEMERIS_TYPE":0,"CLASSIFICATION_TYPE":"U","NORAD_CAT_ID":39152,"ELEMENT_SET_NO":999,"REV_AT_EPOCH":69578,"BSTAR":0.00037805,"MEAN_MOTION_DOT":4.157e-5,"MEAN_MOTION_DDOT":0},{"OBJECT_NAME":"CUBEBUG-1 (CAPITAN BETO)","OBJECT_ID":"2013-018D","EPOCH":"2026-03-06T21:33:42.291360","MEAN_MOTION":14.96550596,"ECCENTRICITY":0.001276,"INCLINATION":98.1517,"RA_OF_ASC_NODE":221.4092,"ARG_OF_PERICENTER":125.5184,"MEAN_ANOMALY":234.7228,"EPHEMERIS_TYPE":0,"CLASSIFICATION_TYPE":"U","NORAD_CAT_ID":39153,"ELEMENT_SET_NO":999,"REV_AT_EPOCH":69576,"BSTAR":0.00049178,"MEAN_MOTION_DOT":5.541e-5,"MEAN_MOTION_DDOT":0},{"OBJECT_NAME":"PROBA-V","OBJECT_ID":"2013-021A","EPOCH":"2026-03-06T22:11:01.362048","MEAN_MOTION":14.23572723,"ECCENTRICITY":0.0005343,"INCLINATION":98.3503,"RA_OF_ASC_NODE":49.6266,"ARG_OF_PERICENTER":76.1895,"MEAN_ANOMALY":283.9879,"EPHEMERIS_TYPE":0,"CLASSIFICATION_TYPE":"U","NORAD_CAT_ID":39159,"ELEMENT_SET_NO":999,"REV_AT_EPOCH":66656,"BSTAR":6.0105e-5,"MEAN_MOTION_DOT":9.6e-7,"MEAN_MOTION_DDOT":0},{"OBJECT_NAME":"ESTCUBE 1","OBJECT_ID":"2013-021C","EPOCH":"2026-03-07T02:57:06.115680","MEAN_MOTION":14.81056515,"ECCENTRICITY":0.0007921,"INCLINATION":97.742,"RA_OF_ASC_NODE":123.8542,"ARG_OF_PERICENTER":358.8723,"MEAN_ANOMALY":1.247,"EPHEMERIS_TYPE":0,"CLASSIFICATION_TYPE":"U","NORAD_CAT_ID":39161,"ELEMENT_SET_NO":999,"REV_AT_EPOCH":68991,"BSTAR":0.00027414,"MEAN_MOTION_DOT":2.077e-5,"MEAN_MOTION_DDOT":0},{"OBJECT_NAME":"ARIRANG-5 (KOMPSAT-5)","OBJECT_ID":"2013-042A","EPOCH":"2026-03-07T03:24:50.249664","MEAN_MOTION":15.04530664,"ECCENTRICITY":0.0003828,"INCLINATION":97.6181,"RA_OF_ASC_NODE":254.2603,"ARG_OF_PERICENTER":118.9408,"MEAN_ANOMALY":241.2202,"EPHEMERIS_TYPE":0,"CLASSIFICATION_TYPE":"U","NORAD_CAT_ID":39227,"ELEMENT_SET_NO":999,"REV_AT_EPOCH":68851,"BSTAR":0.00012926,"MEAN_MOTION_DOT":1.75e-5,"MEAN_MOTION_DDOT":0},{"OBJECT_NAME":"GONETS-M 5","OBJECT_ID":"2013-048A","EPOCH":"2026-03-07T03:00:41.159232","MEAN_MOTION":12.42888016,"ECCENTRICITY":0.0017815,"INCLINATION":82.4804,"RA_OF_ASC_NODE":46.999,"ARG_OF_PERICENTER":75.7979,"MEAN_ANOMALY":284.5078,"EPHEMERIS_TYPE":0,"CLASSIFICATION_TYPE":"U","NORAD_CAT_ID":39249,"ELEMENT_SET_NO":999,"REV_AT_EPOCH":56620,"BSTAR":-0.00048153,"MEAN_MOTION_DOT":-5.7e-7,"MEAN_MOTION_DDOT":0},{"OBJECT_NAME":"GONETS-M 7","OBJECT_ID":"2013-048C","EPOCH":"2026-03-07T06:01:51.329856","MEAN_MOTION":12.42910304,"ECCENTRICITY":0.0018633,"INCLINATION":82.4865,"RA_OF_ASC_NODE":49.7901,"ARG_OF_PERICENTER":76.7171,"MEAN_ANOMALY":283.5985,"EPHEMERIS_TYPE":0,"CLASSIFICATION_TYPE":"U","NORAD_CAT_ID":39251,"ELEMENT_SET_NO":999,"REV_AT_EPOCH":56617,"BSTAR":-0.00042086,"MEAN_MOTION_DOT":-4.8e-7,"MEAN_MOTION_DDOT":0},{"OBJECT_NAME":"FENGYUN 3C","OBJECT_ID":"2013-052A","EPOCH":"2026-03-07T04:51:11.611008","MEAN_MOTION":14.15728046,"ECCENTRICITY":0.001396,"INCLINATION":98.4889,"RA_OF_ASC_NODE":44.8135,"ARG_OF_PERICENTER":320.7842,"MEAN_ANOMALY":39.2321,"EPHEMERIS_TYPE":0,"CLASSIFICATION_TYPE":"U","NORAD_CAT_ID":39260,"ELEMENT_SET_NO":999,"REV_AT_EPOCH":64413,"BSTAR":0.00010968,"MEAN_MOTION_DOT":1.74e-6,"MEAN_MOTION_DDOT":0},{"OBJECT_NAME":"CASSIOPE","OBJECT_ID":"2013-055A","EPOCH":"2026-03-07T02:47:00.170016","MEAN_MOTION":15.18518301,"ECCENTRICITY":0.0316569,"INCLINATION":80.9185,"RA_OF_ASC_NODE":190.0358,"ARG_OF_PERICENTER":44.7958,"MEAN_ANOMALY":317.8362,"EPHEMERIS_TYPE":0,"CLASSIFICATION_TYPE":"U","NORAD_CAT_ID":39265,"ELEMENT_SET_NO":999,"REV_AT_EPOCH":65214,"BSTAR":0.00048067,"MEAN_MOTION_DOT":0.00040006,"MEAN_MOTION_DDOT":-5.5559e-7},{"OBJECT_NAME":"APRIZESAT 7","OBJECT_ID":"2013-066A","EPOCH":"2026-03-07T02:36:06.769152","MEAN_MOTION":14.9127165,"ECCENTRICITY":0.0035649,"INCLINATION":97.7595,"RA_OF_ASC_NODE":20.886,"ARG_OF_PERICENTER":187.345,"MEAN_ANOMALY":172.7251,"EPHEMERIS_TYPE":0,"CLASSIFICATION_TYPE":"U","NORAD_CAT_ID":39416,"ELEMENT_SET_NO":999,"REV_AT_EPOCH":66601,"BSTAR":0.00018649,"MEAN_MOTION_DOT":1.821e-5,"MEAN_MOTION_DDOT":0},{"OBJECT_NAME":"ZACUBE-1 (TSHEPISOSAT)","OBJECT_ID":"2013-066B","EPOCH":"2026-03-07T03:05:46.622976","MEAN_MOTION":15.00291692,"ECCENTRICITY":0.0042138,"INCLINATION":97.8183,"RA_OF_ASC_NODE":27.9406,"ARG_OF_PERICENTER":228.583,"MEAN_ANOMALY":131.1769,"EPHEMERIS_TYPE":0,"CLASSIFICATION_TYPE":"U","NORAD_CAT_ID":39417,"ELEMENT_SET_NO":999,"REV_AT_EPOCH":66542,"BSTAR":0.00043751,"MEAN_MOTION_DOT":5.523e-5,"MEAN_MOTION_DDOT":0},{"OBJECT_NAME":"APRIZESAT 8","OBJECT_ID":"2013-066K","EPOCH":"2026-03-07T02:21:28.873440","MEAN_MOTION":14.87414176,"ECCENTRICITY":0.0044587,"INCLINATION":97.8116,"RA_OF_ASC_NODE":15.0742,"ARG_OF_PERICENTER":261.7518,"MEAN_ANOMALY":97.8641,"EPHEMERIS_TYPE":0,"CLASSIFICATION_TYPE":"U","NORAD_CAT_ID":39425,"ELEMENT_SET_NO":999,"REV_AT_EPOCH":66449,"BSTAR":0.00018931,"MEAN_MOTION_DOT":1.686e-5,"MEAN_MOTION_DDOT":0},{"OBJECT_NAME":"CINEMA-3 (KHUSAT-2)","OBJECT_ID":"2013-066L","EPOCH":"2026-03-06T07:36:26.930304","MEAN_MOTION":14.77986579,"ECCENTRICITY":0.00901532,"INCLINATION":97.8437,"RA_OF_ASC_NODE":340.2045,"ARG_OF_PERICENTER":184.7538,"MEAN_ANOMALY":175.2827,"EPHEMERIS_TYPE":0,"CLASSIFICATION_TYPE":"U","NORAD_CAT_ID":39426,"ELEMENT_SET_NO":999,"REV_AT_EPOCH":65925,"BSTAR":0.00026524917,"MEAN_MOTION_DOT":1.992e-5,"MEAN_MOTION_DDOT":0},{"OBJECT_NAME":"TRITON-1","OBJECT_ID":"2013-066M","EPOCH":"2026-03-07T04:07:06.212352","MEAN_MOTION":14.81180288,"ECCENTRICITY":0.0090022,"INCLINATION":97.8297,"RA_OF_ASC_NODE":338.3205,"ARG_OF_PERICENTER":205.9569,"MEAN_ANOMALY":153.7115,"EPHEMERIS_TYPE":0,"CLASSIFICATION_TYPE":"U","NORAD_CAT_ID":39427,"ELEMENT_SET_NO":999,"REV_AT_EPOCH":65898,"BSTAR":0.0004095,"MEAN_MOTION_DOT":3.359e-5,"MEAN_MOTION_DDOT":0}]
