AIST-2 (RS43)           
1 39133U 13015D   26066.19887867  .00009118  00000+0  36845-3 0  9990
2 39133  64.8684 230.5236 0024188 248.9916 110.8627 15.25020008708340
GAOFEN-1                
1 39150U 13018A   26066.20849060  .00000344  00000+0  56533-4 0  9996
2 39150  97.9180 140.3129 0016255 232.9261 127.0464 14.76539637693191
NEE-01 PEGASO           
1 39151U 13018B   26065.95250083  .00004206  00000+0  40902-3 0  9992
2 39151  98.1051 206.8606 0013655 137.5248 222.7030 14.93068309695440
TURKSAT-3USAT           
1 39152U 13018C   26065.81802334  .00004157  00000+0  37805-3 0  9993
2 39152  97.7930 157.1370 0013471  83.7072 276.5683 14.95702494695781
CUBEBUG-1 (CAPITAN BETO)
1 39153U 13018D   26065.89840615  .00005541  00000+0  49178-3 0  9990
2 39153  98.1517 221.4092 0012760 125.5184 234.7228 14.96550596695767
PROBA-V                 
1 39159U 13021A   26065.92432132  .00000096  00000+0  60105-4 0  9999
2 39159  98.3503  49.6266 0005343  76.1895 283.9879 14.23572723666562
ESTCUBE 1               
1 39161U 13021C   26066.12298745  .00002077  00000+0  27414-3 0  9991
2 39161  97.7420 123.8542 0007921 358.8723   1.2470 14.81056515689914
ARIRANG-5 (KOMPSAT-5)   
1 39227U 13042A   26066.14224826  .00001750  00000+0  12926-3 0  9997
2 39227  97.6181 254.2603 0003828 118.9408 241.2202 15.04530664688516
GONETS-M 5              
1 39249U 13048A   26066.12547638 -.00000057  00000+0 -48153-3 0  9996
2 39249  82.4804  46.9990 0017815  75.7979 284.5078 12.42888016566201
GONETS-M 7              
1 39251U 13048C   26066.25128854 -.00000048  00000+0 -42086-3 0  9997
2 39251  82.4865  49.7901 0018633  76.7171 283.5985 12.42910304566176
FENGYUN 3C              
1 39260U 13052A   26066.20221772  .00000174  00000+0  10968-3 0  9992
2 39260  98.4889  44.8135 0013960 320.7842  39.2321 14.15728046644134
CASSIOPE                
1 39265U 13055A   26066.11597419  .00040006 -55559-6  48067-3 0  9990
2 39265  80.9185 190.0358 0316569  44.7958 317.8362 15.18518301652142
APRIZESAT 7             
1 39416U 13066A   26066.10841168  .00001821  00000+0  18649-3 0  9990
2 39416  97.7595  20.8860 0035649 187.3450 172.7251 14.91271650666016
ZACUBE-1 (TSHEPISOSAT)  
1 39417U 13066B   26066.12901184  .00005523  00000+0  43751-3 0  9993
2 39417  97.8183  27.9406 0042138 228.5830 131.1769 15.00291692665422
APRIZESAT 8             
1 39425U 13066K   26066.09825085  .00001686  00000+0  18931-3 0  9991
2 39425  97.8116  15.0742 0044587 261.7518  97.8641 14.87414176664491
CINEMA-3 (KHUSAT-2)     
1 39426U 13066L   26065.31697836  .00001992  00000+0  26525-3 0  9995
2 39426  97.8437 340.2045 0090153 184.7538 175.2827 14.77986579659258
TRITON-1                
1 39427U 13066M   26066.17159968  .00003359  00000+0  40950-3 0  9997
2 39427  97.8297 338.3205 0090022 205.9569 153.7115 14.81180288658982
